#dP2022  8  7 12  0  0.00000000      96 __u+U ITR00 EXT  IAC
## 2222  43200.00000000   900.00000000 59798 0.5000000000000
+  116   C06C07C08C09C10C11C12C13C14C16C19C20C21C22C23C24C25
+        C26C27C28C29C30C32C33C34C35C36C37C38C39C40C41C42C43
+        C44C45C46E01E02E03E04E05E07E08E09E10E11E12E13E14E15
+        E18E19E21E24E25E26E27E30E31E33E34E36G01G02G03G04G05
+        G06G07G08G09G10G11G12G13G14G15G16G17G18G19G20G21G22
+        G23G24G25G26G27G28G29G30G31G32J02J03R01R02R03R04R05
+        R07R08R09R11R12R13R14R15R17R18R19R20R21R24  0  0  0
++        10 11  8 10 11 10  9  8  8 10  7  8  7  7  9  8  9
++         8  8 10  8  7 11  9 10  8  7  9 10 10 12  9  8 10
++         9  8  9  7  7  8  8  8  8  9  8  7  8  7  8  6  7
++         8 12  7  7  7  8  9  7  7  8  8  8  9  7  8  8  7
++         8  7  7  8  7  7  7  7  7  8  8  8  7  8  7  8  7
++         7  8  6  6  6  8  8  7  9  7  8  9  9  9  9  9  7
++         9 10  9  8  8  9  9  8  9  9  9 10  9  7  0  0  0
%c M  cc GPS ccc cccc cccc cccc cccc ccccc ccccc ccccc ccccc
%c cc cc ccc ccc cccc cccc cccc cccc ccccc ccccc ccccc ccccc
%f  0.0000000  0.000000000  0.00000000000  0.000000000000000
%f  0.0000000  0.000000000  0.00000000000  0.000000000000000
%i    0    0    0    0      0      0      0      0         0
%i    0    0    0    0      0      0      0      0         0
/* IAC                                ULTRA-RAPID PREDICTION
/* S/V CLOCKS ARE ALIGNED TO GNSS TIME                      
/* G:C1WC2W R:C1PC2P E:C1XC5X C:C2IC6I J:C1CC2S             
/* PCV:IGS14_2218 OL/AL:FES2004  NONE     YN ORB:CoN CLK:CoN
*  2022 08 07 21 15  0.00000000
PC06  -4932.316529  38790.334985 -15441.571411    561.898638
PC07  -8262.100191  25781.003204  32354.942544   -535.109044
PC08 -19460.619272  31958.254880 -19620.238663    433.215373
PC09   -128.905848  41235.475292  -7024.546815   -902.575317
PC10    -80.984662  27570.983142  32243.424059    110.958626
PC11 -15252.885396 -16060.714760  17010.563438   -483.036301
PC12  -7338.899739 -26892.612611   1020.392378   -556.834392
PC13 -13651.715576  32389.616906 -23380.918133     46.323739
PC14 -25206.936674 -10593.416953   5439.072212    579.458238
PC16  -6355.091022  37325.436417 -18062.218217    142.963109
PC19  27272.748022   4402.173795   4049.562568   -380.320725
PC20  20456.067878  14317.143116 -12486.648376   -965.727583
PC21   -737.144668 -16286.225330  22657.166849   -140.741433
PC22  18663.284876  -8446.129691  18958.814892    -76.243202
PC23 -21119.404507  18014.679068  -2855.394810   -959.204281
PC24  -8208.917453 -14535.956426 -22359.749288   -968.246866
PC25 -21326.552579   3987.126812 -17564.498842   -696.202038
PC26   7418.599493 -22677.199868 -14451.733705    698.376308
PC27   1414.437118  26833.195651   7493.993347      1.814175
PC28 -10563.796209  15857.197232  20391.118525     99.115873
PC29  17034.687691   4749.380858 -21597.683366    592.309208
PC30  13366.767473  22668.084556  -9272.818323    501.892282
PC32    815.412556  16276.660159 -22643.479917   -432.223559
PC33 -27279.647027  -4314.058326  -3926.141858   -355.424393
PC34 -13806.061461 -22011.736516  10187.552885   -341.259761
PC35  10783.982971 -15067.745625 -20886.597027    401.981363
PC36  21206.430640  -2921.793208  17932.310847   -969.473744
PC37  -9050.088842  22693.256365  13526.271314   -928.572480
PC38 -24045.387419  32677.026154 -11783.484265     15.594859
PC39  -8394.196507  33987.737353 -23327.822692     -0.204596
PC40 -12923.781423  19311.142955  35151.906443     -1.914459
PC41 -19057.218866   8211.414380 -18609.902968   -147.065573
PC42 -19527.900024 -14740.467243  13440.304632    -75.173532
PC43 -17175.828852  -5622.040219  21255.245244      7.366546
PC44  -2163.628376 -26756.212039  -7692.005577     10.300245
PC45  20988.757024 -18195.026419   2571.674827    829.216602
PC46   9552.500227  13234.003814  22647.271866   -474.344861
PE01 -24330.474288  -5012.999258 -16088.503816   -530.363131
PE02  24430.577415   4905.297859  15973.472775    316.937113
PE03  23861.764155  15136.012777   8837.202956   -587.128028
PE04 -19601.203809   2320.999463 -22051.758775  -1088.548039
PE05  14164.601871  24051.283577  -9856.173063   -155.628143
PE07   3623.236421 -18846.675373  22537.666510   -694.557811
PE08  19430.181629  -2418.846671  22203.449241   -577.316793
PE09  -3483.987188  18755.294072 -22634.808506   -615.053255
PE10 -14696.437658  21875.741035  13473.954657   -505.908344
PE11  -9830.643953  27669.776645   3688.207861   2720.417218
PE12 -17132.284514  12868.286551  20407.594013   -103.263602
PE13  10198.038185 -27425.827862  -4473.405938    430.154922
PE14 -16573.797878 -17222.722015   4072.091920  -1756.126712
PE15  17064.286587 -12739.187645 -20560.781183    728.319064
PE18  24817.864938  14545.188749 -14514.664203  -1121.708387
PE19 -23304.792856 -17034.504934  -6544.413496  -4872.569087
PE21  -7651.993167 -15107.065804 -24270.792349   -750.498208
PE24 -15683.280897  17077.307756  18405.908491   -768.307647
PE25   7330.982476  15223.393946  24316.450307   -583.777779
PE26  -3239.991101 -25433.649505  14779.477168  -1468.626493
PE27  14540.682464 -17296.361969 -19107.154155   -363.064481
PE30  28241.549997  -8642.114590  -1899.219147   -736.149459
PE31 -27963.119824   9306.202501   2777.018881   -501.274141
PE33 -13827.426839  -9375.986953  24430.321229   -454.021607
PE34  13927.334441   9161.436618 -24474.291391   -489.801994
PE36   2600.572092  25892.597921 -14111.837234   -413.487347
PG01 -13788.034252  21031.352717   7672.389164    306.317394
PG02  16045.138857  -7641.521725 -19174.373470   -649.681729
PG03 -19271.802583  12359.511238 -13488.277860   -326.608398
PG04  -9476.110028  12331.164405 -21516.961663   -136.015457
PG05  25972.987884  -5842.775146    736.677371    -92.043808
PG06   9430.762982  13542.750534 -20734.488140    416.466860
PG07  -4086.902404  25055.879652   7289.109929    315.792360
PG08 -15503.718756   4459.898364  21117.581384    -79.527146
PG09   1449.225415  20359.475552 -17048.937136   -310.706278
PG10 -11701.690782 -12288.098505  20658.203958   -519.992648
PG11  15808.788505    919.302805 -21322.062644    -10.725858
PG12  21421.341854 -10233.171602 -12068.135657   -258.740322
PG13  18285.678002   5916.520870  18250.692160    363.591002
PG14   9539.862034  13682.498781  20696.853535   -110.056931
PG15  15290.324690  -6412.445608  20374.928968    -39.105240
PG16 -26431.533172  -1287.653507  -4556.475807   -519.436227
PG17  12490.618182  22993.194812   4800.480784    645.908348
PG18   4666.967768 -25017.561863   7359.681399     88.994825
PG19  17260.044148  19652.744089  -5558.903621    194.178745
PG20  23744.030733   1007.431836 -11613.923965    496.679434
PG21 -15994.399941  13391.364813  16630.639627    160.668510
PG22 -18207.263371 -18017.278226  -6939.620181    305.912419
PG23    205.791665 -15216.668149  21748.024677    -36.089498
PG24  14339.534492 -18665.884469  11578.172265    175.086307
PG25   9151.330822 -15612.040957 -19636.629937    358.268192
PG26 -22399.468306  -5300.066850 -13609.475623    222.514079
PG27 -20215.377070  -8522.258543  15029.343322    220.135177
PG28  17830.361154  10546.956995  16994.744535    339.738443
PG29    115.159887 -20147.035033 -17314.282657   -540.788979
PG30   3982.145479  21078.057658  15591.566716   -535.511109
PG31 -11732.995369 -11000.818584 -21201.602417   -188.793884
PG32 -15785.684169 -21400.130475   2114.676118   -197.575073
PJ02 -31562.036781  25429.818881  16550.547076     -2.793878
PJ03 -26236.832462  27052.790616  24034.893258     -0.500578
PR01  23664.669668   9006.754472   3145.086848     12.768600
PR02  16267.048808  -2258.558761  19534.572359    526.260862
PR03   -175.169063 -11940.748918  22589.183883     61.467016
PR04 -16199.655705 -14700.999566  13154.796216    153.162067
PR05 -23377.417441  -9604.963019  -3535.978768     97.560767
PR07    871.759366  12159.628880 -22362.773940     39.032360
PR08  16356.824457  14646.260141 -12906.588831    -66.584574
PR09 -21058.931782  14246.928561  -1423.492603     70.006955
PR11   3754.562802  10639.649554  22890.976227     31.070220
PR12  18455.568383  -2640.153289  17434.704274     19.817961
PR13  21439.977243 -13516.153193   2890.661553    -25.455993
PR14  11632.496230 -17022.807420 -15014.818201     24.600177
PR15  -4570.166967 -10213.184299 -22896.836537     94.314193
PR17   1772.885707 -24224.484082  -7712.654314    550.414463
PR18  -5577.973385 -23185.810091   9122.683494     36.427214
PR19  -9594.165734 -11450.898172  20666.036692   -199.177609
PR20  -9061.076288  10764.277425  21269.327236    -76.080751
PR21  -1154.193315  24736.211966   6188.557309   -323.731934
PR24   9014.797076 -11727.925146 -20763.873552    107.729535
EOF
